NORAD_CAT_ID,OBJECT_NAME,OBJECT_TYPE,EPOCH,MEAN_MOTION,ECCENTRICITY,INCLINATION,RA_OF_ASC_NODE,ARG_OF_PERICENTER,MEAN_ANOMALY,BSTAR,MEAN_MOTION_DOT,MEAN_MOTION_DDOT,TLE_LINE0,TLE_LINE1,TLE_LINE2,SEMIMAJOR_AXIS,PERIOD,APOGEE,PERIGEE,DECAYED
54000.0,STARLINK-5088,PAYLOAD,2024-06-02 11:13:44,15.08836586,0.0001288,53.2162,220.8227,89.5157,270.5982,4.3158e-05,3.99e-06,0.0,0 STARLINK-5088,1 54000U 22125AN  24154.46787349  .00000399  00000-0  43158-4 0  9991,2 54000  53.2162 220.8227 0001288  89.5157 270.5982 15.08836586 92269,6917.891,95.438,540.647,538.865,0.0
54000.0,STARLINK-5088,PAYLOAD,2024-06-03 11:04:30,15.08844719,0.0001218,53.2161,216.3624,88.4247,271.6884,0.00012188,1.653e-05,0.0,0 STARLINK-5088,1 54000U 22125AN  24155.46146878  .00001653  00000-0  12188-3 0  9990,2 54000  53.2161 216.3624 0001218  88.4247 271.6884 15.08844719 92417,6917.866,95.437,540.574,538.888,0.0
54000.0,STARLINK-5088,PAYLOAD,2024-06-03 14:15:17,15.08846155,0.000123,53.2163,215.7682,87.2662,272.8471,0.00012081,1.636e-05,0.0,0 STARLINK-5088,1 54000U 22125AN  24155.59394796  .00001636  00000-0  12081-3 0  9991,2 54000  53.2163 215.7682 0001230  87.2662 272.8471 15.08846155 92363,6917.862,95.437,540.577,538.876,0.0
54000.0,STARLINK-5088,PAYLOAD,2024-06-03 20:36:49,15.08845294,0.0001118,53.2155,214.5783,82.5511,277.5608,8.4052e-05,1.05e-05,0.0,0 STARLINK-5088,1 54000U 22125AN  24155.85890903  .00001050  00000-0  84052-4 0  9999,2 54000  53.2155 214.5783 0001118  82.5511 277.5608 15.08845294 92401,6917.864,95.437,540.503,538.956,0.0
54000.0,STARLINK-5088,PAYLOAD,2024-06-04 04:33:46,15.08834545,0.0001418,53.2178,213.093,90.1806,269.9349,5.7401e-05,6.26e-06,0.0,0 STARLINK-5088,1 54000U 22125AN  24156.19011955  .00000626  00000-0  57401-4 0  9995,2 54000  53.2178 213.0930 0001418  90.1806 269.9349 15.08834545 92526,6917.897,95.438,540.743,538.781,0.0
54000.0,STARLINK-5088,PAYLOAD,2024-06-04 10:55:18,15.08836705,0.0001264,53.2161,211.9033,90.2835,269.8302,8.2296e-05,1.022e-05,0.0,0 STARLINK-5088,1 54000U 22125AN  24156.45507839  .00001022  00000-0  82296-4 0  9996,2 54000  53.2161 211.9033 0001264  90.2835 269.8302 15.08836705 92495,6917.89,95.438,540.63,538.881,0.0
54000.0,STARLINK-5088,PAYLOAD,2024-06-05 04:24:33,15.08845206,0.0001291,53.2164,208.6324,92.1455,267.9685,5.4675e-05,5.82e-06,0.0,0 STARLINK-5088,1 54000U 22125AN  24157.18371560  .00000582  00000-0  54675-4 0  9997,2 54000  53.2164 208.6324 0001291  92.1455 267.9685 15.08845206 92672,6917.864,95.437,540.623,538.836,0.0
54000.0,STARLINK-5088,PAYLOAD,2024-06-05 10:46:05,15.08848107,0.000133,53.2155,207.443,88.7729,271.3416,0.00011519,1.546e-05,0.0,0 STARLINK-5088,1 54000U 22125AN  24157.44867169  .00001546  00000-0  11519-3 0  9991,2 54000  53.2155 207.4430 0001330  88.7729 271.3416 15.08848107 92647,6917.856,95.437,540.641,538.801,0.0
54000.0,STARLINK-5088,PAYLOAD,2024-06-05 20:18:23,15.08849377,0.0001304,53.2151,205.6587,82.2543,277.8597,0.00013336,1.836e-05,0.0,0 STARLINK-5088,1 54000U 22125AN  24157.84611060  .00001836  00000-0  13336-3 0  9993,2 54000  53.2151 205.6587 0001304  82.2543 277.8597 15.08849377 92708,6917.852,95.437,540.619,538.815,0.0
54000.0,STARLINK-5088,PAYLOAD,2024-06-06 10:36:52,15.08840096,0.0001422,53.215,202.982,79.9632,280.152,9.4802e-05,1.221e-05,0.0,0 STARLINK-5088,1 54000U 22125AN  24158.44227627  .00001221  00000-0  94802-4 0  9998,2 54000  53.2150 202.9820 0001422  79.9632 280.1520 15.08840096 92869,6917.88,95.438,540.729,538.761,0.0
54000.0,STARLINK-5088,PAYLOAD,2024-06-07 08:52:16,15.08844348,0.0001328,53.2143,198.8203,78.6991,281.415,-0.00012257,-2.238e-05,0.0,0 STARLINK-5088,1 54000U 22125AN  24159.36963450 -.00002238  00000-0 -12257-3 0  9995,2 54000  53.2143 198.8203 0001328  78.6991 281.4150 15.08844348 92933,6917.867,95.437,540.651,538.813,0.0
54000.0,STARLINK-5088,PAYLOAD,2024-06-08 02:21:30,15.08844218,0.0001313,53.2156,195.548,83.8154,276.2987,0.00014969,2.095e-05,0.0,0 STARLINK-5088,1 54000U 22125AN  24160.09827336  .00002095  00000-0  14969-3 0  9990,2 54000  53.2156 195.5480 0001313  83.8154 276.2987 15.08844218 93118,6917.867,95.437,540.641,538.824,0.0
54000.0,STARLINK-5088,PAYLOAD,2024-06-08 08:43:03,15.08848593,0.0001314,53.214,194.3589,84.4332,275.6809,0.00024833,3.667e-05,0.0,0 STARLINK-5088,1 54000U 22125AN  24160.36323284  .00003667  00000-0  24833-3 0  9990,2 54000  53.2140 194.3589 0001314  84.4332 275.6809 15.08848593 93086,6917.854,95.437,540.628,538.81,0.0
54000.0,STARLINK-5088,PAYLOAD,2024-06-08 19:50:45,15.08842604,0.0001304,53.2143,192.2762,90.009,270.1052,0.00013747,1.901e-05,0.0,0 STARLINK-5088,1 54000U 22125AN  24160.82691485  .00001901  00000-0  13747-3 0  9993,2 54000  53.2143 192.2762 0001304  90.0090 270.1052 15.08842604 93157,6917.872,95.437,540.64,538.835,0.0
54000.0,STARLINK-5088,PAYLOAD,2024-06-09 05:23:04,15.08835708,0.0001672,53.2164,190.4917,104.6256,255.4922,7.5971e-06,-1.67e-06,0.0,0 STARLINK-5088,1 54000U 22125AN  24161.22436038 -.00000167  00000-0  75971-5 0  9992,2 54000  53.2164 190.4917 0001672 104.6256 255.4922 15.08835708 93289,6917.894,95.438,540.915,538.602,0.0
54000.0,STARLINK-5088,PAYLOAD,2024-06-09 08:33:51,15.08830525,0.0001597,53.2173,189.8975,101.1455,258.9716,-1.5216e-05,-5.3e-06,0.0,0 STARLINK-5088,1 54000U 22125AN  24161.35684639 -.00000530  00000-0 -15216-4 0  9998,2 54000  53.2173 189.8975 0001597 101.1455 258.9716 15.08830525 93308,6917.909,95.438,540.879,538.67,0.0
54000.0,STARLINK-5088,PAYLOAD,2024-06-10 05:13:51,15.088436,0.0001624,53.2178,186.0287,123.4496,236.6651,-2.3012e-05,-6.54e-06,0.0,0 STARLINK-5088,1 54000U 22125AN  24162.21795849 -.00000654  00000-0 -23012-4 0  9990,2 54000  53.2178 186.0287 0001624 123.4496 236.6651 15.08843600 93434,6917.869,95.437,540.858,538.611,0.0
54000.0,STARLINK-5088,PAYLOAD,2024-06-10 08:24:37,15.08843569,0.0001301,53.2166,185.4374,97.22,262.894,2.5786e-05,1.23e-06,0.0,0 STARLINK-5088,1 54000U 22125AN  24162.35043822  .00000123  00000-0  25786-4 0  9991,2 54000  53.2166 185.4374 0001301  97.2200 262.8940 15.08843569 93384,6917.869,95.437,540.634,538.834,0.0
54000.0,STARLINK-5088,PAYLOAD,2024-06-10 17:56:56,15.08843164,0.0001372,53.2164,183.6532,97.8576,262.2572,1.1829e-05,-1e-06,0.0,0 STARLINK-5088,1 54000U 22125AN  24162.74787877 -.00000100  00000-0  11829-4 0  9998,2 54000  53.2164 183.6532 0001372  97.8576 262.2572 15.08843164 93441,6917.871,95.437,540.685,538.787,0.0
54000.0,STARLINK-5088,PAYLOAD,2024-06-11 05:04:39,15.08832925,0.0001343,53.2163,181.5716,99.442,260.6724,0.00014859,2.077e-05,0.0,0 STARLINK-5088,1 54000U 22125AN  24163.21156430  .00002077  00000-0  14859-3 0  9995,2 54000  53.2163 181.5716 0001343  99.4420 260.6724 15.08832925 93584,6917.902,95.438,540.696,538.838,0.0
54000.0,STARLINK-5088,PAYLOAD,2024-06-11 08:15:25,15.08834489,0.0001339,53.2163,180.9772,99.6389,260.4754,0.00015876,2.239e-05,0.0,0 STARLINK-5088,1 54000U 22125AN  24163.34404433  .00002239  00000-0  15876-3 0  9998,2 54000  53.2163 180.9772 0001339  99.6389 260.4754 15.08834489 93533,6917.897,95.438,540.689,538.836,0.0
54000.0,STARLINK-5088,PAYLOAD,2024-06-12 06:30:49,15.08834514,0.000136,53.2165,176.8153,100.8767,259.2379,2.8806e-05,1.71e-06,0.0,0 STARLINK-5088,1 54000U 22125AN  24164.27140998  .00000171  00000-0  28806-4 0  9995,2 54000  53.2165 176.8153 0001360 100.8767 259.2379 15.08834514 93674,6917.897,95.438,540.703,538.821,0.0
54000.0,STARLINK-5088,PAYLOAD,2024-06-12 08:06:13,15.08833931,0.0001364,53.2165,176.5177,100.2889,259.8257,2.0602e-05,4e-07,0.0,0 STARLINK-5088,1 54000U 22125AN  24164.33765067  .00000040  00000-0  20602-4 0  9993,2 54000  53.2165 176.5177 0001364 100.2889 259.8257 15.08833931 93752,6917.899,95.438,540.708,538.82,0.0
54000.0,STARLINK-5088,PAYLOAD,2024-06-13 09:32:22,15.08839533,0.0001359,53.2165,171.7595,96.1501,263.9646,8.1071e-05,1.003e-05,0.0,0 STARLINK-5088,1 54000U 22125AN  24165.39748742  .00001003  00000-0  81071-4 0  9998,2 54000  53.2165 171.7595 0001359  96.1501 263.9646 15.08839533 93911,6917.882,95.438,540.687,538.807,0.0
54000.0,STARLINK-5088,PAYLOAD,2024-06-13 17:29:18,15.08838977,0.0001359,53.2166,170.2722,90.9341,269.1807,6.9543e-05,8.19e-06,0.0,0 STARLINK-5088,1 54000U 22125AN  24165.72868835  .00000819  00000-0  69543-4 0  9995,2 54000  53.2166 170.2722 0001359  90.9341 269.1807 15.08838977 93897,6917.884,95.438,540.689,538.808,0.0
54000.0,STARLINK-5088,PAYLOAD,2024-06-14 07:47:46,15.08839996,0.0001294,53.2161,167.595,87.0953,273.0187,7.8177e-05,9.57e-06,0.0,0 STARLINK-5088,1 54000U 22125AN  24166.32484867  .00000957  00000-0  78177-4 0  9997,2 54000  53.2161 167.5950 0001294  87.0953 273.0187 15.08839996 93985,6917.88,95.438,540.641,538.85,0.0
54000.0,STARLINK-5088,PAYLOAD,2024-06-14 17:20:05,15.0884284,0.0001309,53.2162,165.8109,87.0534,273.0608,9.6189e-05,1.243e-05,0.0,0 STARLINK-5088,1 54000U 22125AN  24166.72228628  .00001243  00000-0  96189-4 0  9994,2 54000  53.2162 165.8109 0001309  87.0534 273.0608 15.08842840 94043,6917.872,95.437,540.642,538.831,0.0
54000.0,STARLINK-5088,PAYLOAD,2024-06-15 06:03:10,15.08847753,0.0001263,53.2159,163.4315,88.8529,271.2608,9.8611e-05,1.282e-05,0.0,0 STARLINK-5088,1 54000U 22125AN  24167.25220182  .00001282  00000-0  98611-4 0  9995,2 54000  53.2159 163.4315 0001263  88.8529 271.2608 15.08847753 94121,6917.857,95.437,540.595,538.848,0.0
54000.0,STARLINK-5088,PAYLOAD,2024-06-15 17:10:52,15.08846105,0.0001232,53.2157,161.3499,88.3176,271.7957,7.2641e-05,8.69e-06,0.0,0 STARLINK-5088,1 54000U 22125AN  24167.71588198  .00000869  00000-0  72641-4 0  9995,2 54000  53.2157 161.3499 0001232  88.3176 271.7957 15.08846105 94197,6917.862,95.437,540.579,538.874,0.0
54000.0,STARLINK-5088,PAYLOAD,2024-06-16 05:53:57,15.08840419,0.0001271,53.216,158.9712,88.7525,271.3613,3.4045e-05,2.54e-06,0.0,0 STARLINK-5088,1 54000U 22125AN  24168.24580589  .00000254  00000-0  34045-4 0  9994,2 54000  53.2160 158.9712 0001271  88.7525 271.3613 15.08840419 94340,6917.879,95.438,540.623,538.865,0.0
